{
  "norad_id": 63566,
  "name": "STARLINK-32950",
  "history": [
    {
      "epoch": "2026-03-28T14:30:28.787040",
      "apogee_km": 483.7480492765535,
      "perigee_km": 482.2454609841807,
      "latitude_deg": 20.369493790637293,
      "longitude_deg": -125.36801439989358,
      "semi_major_axis_km": 6861.133755130367,
      "eccentricity": 0.0001095,
      "inclination_deg": 43.0032,
      "raan_deg": 163.4521,
      "arg_perigee_deg": 262.4624,
      "mean_anomaly_deg": 97.6104,
      "mean_motion_rev_day": 15.2759748
    }
  ]
}