{"fetched_at":"2026-03-29T16:36:15Z","count":15609,"tles":[{"name":"STARLINK-32950","line1":"1 63566U 25075U   26087.60449985  .00021459  00000+0  78666-3 0  9999","line2":"2 63566  43.0032 163.4521 0001095 262.4624  97.6104 15.27597480 54827","category":"Starlink"}]}